IRIDIUM 63              
1 25286U 98021B   25142.40681876  .00000414  00000+0  13425-3 0  9993
2 25286  86.3963  92.9469 0002337  82.1981 277.9482 14.36526400420144
IRIDIUM 69              
1 25319U 98026A   25142.35957769  .00000475  00000+0  14195-3 0  9998
2 25319  86.3951 106.3371 0004603  98.1459 262.0263 14.40942829419349
IRIDIUM 71              
1 25320U 98026B   25142.92531296  .00000390  00000+0  11493-3 0  9990
2 25320  86.3953 100.7920 0003364 126.2026 233.9485 14.41137815420209
IRIDIUM 73              
1 25344U 98032C   25142.83388994  .00000514  00000+0  12312-3 0  9997
2 25344  86.4426  57.5830 0002999  84.1250 276.0297 14.51687831427186
IRIDIUM 82              
1 25467U 98051A   25142.35241860  .00027791  00000+0  81770-3 0  9991
2 25467  86.3652 122.4296 0089147  36.9606 323.7739 15.30985378420000
